start=new Date('2022-11-11T00:00:00.000Z').valueOf();
sats=[{"ELEMENT_SET_NO":"999","TIME_SYSTEM":"UTC","PERIAPSIS":"538.071","DECAY_DATE":null,"RA_OF_ASC_NODE":"33.3335","MEAN_ANOMALY":"331.0744","PERIOD":"95.438","REF_FRAME":"TEME","MEAN_ELEMENT_THEORY":"SGP4","EPOCH":"2022-11-10T17:20:43.135008","TLE_LINE2":"2 51806  53.2164  33.3335 0002458  29.0384 331.0744 15.08831394 40545","EPHEMERIS_TYPE":"0","TLE_LINE1":"1 51806U 22017AQ  22314.72272147 -.00000902  00000-0 -38557-4 0  9991","NORAD_CAT_ID":"51806","INCLINATION":"53.2164","SEMIMAJOR_AXIS":"6917.907","CENTER_NAME":"EARTH","RCS_SIZE":"LARGE","SITE":"AFWTR","OBJECT_ID":"2022-017AQ","GP_ID":"217371544","MEAN_MOTION_DDOT":"0.0000000000000","MEAN_MOTION_DOT":"-0.00000902","OBJECT_NAME":"STARLINK-3581","LAUNCH_DATE":"2022-02-25","CLASSIFICATION_TYPE":"U","REV_AT_EPOCH":"4054","FILE":"3650843","OBJECT_TYPE":"PAYLOAD","BSTAR":"-0.00003855700000","ECCENTRICITY":"0.00024580","APOAPSIS":"541.472","ARG_OF_PERICENTER":"29.0384","COUNTRY_CODE":"US","MEAN_MOTION":"15.08831394"},{"RA_OF_ASC_NODE":"33.5981","DECAY_DATE":null,"PERIAPSIS":"538.084","ELEMENT_SET_NO":"999","TIME_SYSTEM":"UTC","TLE_LINE1":"1 51807U 22017AR  22314.66383903 -.00004951  00000-0 -29341-3 0  9996","NORAD_CAT_ID":"51807","SEMIMAJOR_AXIS":"6917.969","CENTER_NAME":"EARTH","INCLINATION":"53.2182","EPHEMERIS_TYPE":"0","TLE_LINE2":"2 51807  53.2182  33.5981 0002530  24.9946 335.1169 15.08810987 40680","PERIOD":"95.439","EPOCH":"2022-11-10T15:55:55.692192","REF_FRAME":"TEME","MEAN_ELEMENT_THEORY":"SGP4","MEAN_ANOMALY":"335.1169","OBJECT_TYPE":"PAYLOAD","BSTAR":"-0.00029341000000","FILE":"3650843","CLASSIFICATION_TYPE":"U","REV_AT_EPOCH":"4068","OBJECT_NAME":"STARLINK-3606","LAUNCH_DATE":"2022-02-25","OBJECT_ID":"2022-017AR","GP_ID":"217372285","MEAN_MOTION_DDOT":"0.0000000000000","MEAN_MOTION_DOT":"-0.00004951","SITE":"AFWTR","RCS_SIZE":"LARGE","MEAN_MOTION":"15.08810987","ARG_OF_PERICENTER":"24.9946","COUNTRY_CODE":"US","ECCENTRICITY":"0.00025300","APOAPSIS":"541.584"},{"MEAN_MOTION":"15.08819681","COUNTRY_CODE":"US","ARG_OF_PERICENTER":"40.1910","APOAPSIS":"541.159","ECCENTRICITY":"0.00019530","BSTAR":"0.00032659000000","OBJECT_TYPE":"PAYLOAD","FILE":"3650843","REV_AT_EPOCH":"4056","CLASSIFICATION_TYPE":"U","LAUNCH_DATE":"2022-02-25","OBJECT_NAME":"STARLINK-3609","OBJECT_ID":"2022-017AS","GP_ID":"217371047","MEAN_MOTION_DDOT":"0.0000000000000","MEAN_MOTION_DOT":"0.00004911","SITE":"AFWTR","RCS_SIZE":"LARGE","INCLINATION":"53.2169","SEMIMAJOR_AXIS":"6917.942","CENTER_NAME":"EARTH","TLE_LINE1":"1 51808U 22017AS  22314.84783379  .00004911  00000-0  32659-3 0  9998","NORAD_CAT_ID":"51808","EPHEMERIS_TYPE":"0","TLE_LINE2":"2 51808  53.2169  32.7641 0001953  40.1910 319.9227 15.08819681 40561","PERIOD":"95.439","REF_FRAME":"TEME","EPOCH":"2022-11-10T20:20:52.839456","MEAN_ELEMENT_THEORY":"SGP4","MEAN_ANOMALY":"319.9227","RA_OF_ASC_NODE":"32.7641","DECAY_DATE":null,"PERIAPSIS":"538.456","TIME_SYSTEM":"UTC","ELEMENT_SET_NO":"999"},{"TIME_SYSTEM":"UTC","ELEMENT_SET_NO":"999","PERIAPSIS":"538.210","DECAY_DATE":null,"RA_OF_ASC_NODE":"33.6059","MEAN_ANOMALY":"328.4711","REF_FRAME":"TEME","PERIOD":"95.439","MEAN_ELEMENT_THEORY":"SGP4","EPOCH":"2022-11-10T15:50:37.223520","TLE_LINE2":"2 51809  53.2165  33.6059 0002289  31.6419 328.4711 15.08824130 40639","EPHEMERIS_TYPE":"0","INCLINATION":"53.2165","SEMIMAJOR_AXIS":"6917.929","CENTER_NAME":"EARTH","TLE_LINE1":"1 51809U 22017AT  22314.66015305  .00015205  00000-0  97175-3 0  9998","NORAD_CAT_ID":"51809","RCS_SIZE":"LARGE","SITE":"AFWTR","GP_ID":"217371297","MEAN_MOTION_DOT":"0.00015205","MEAN_MOTION_DDOT":"0.0000000000000","OBJECT_ID":"2022-017AT","LAUNCH_DATE":"2022-02-25","OBJECT_NAME":"STARLINK-3607","REV_AT_EPOCH":"4063","CLASSIFICATION_TYPE":"U","FILE":"3650843","BSTAR":"0.00097175000000","OBJECT_TYPE":"PAYLOAD","APOAPSIS":"541.377","ECCENTRICITY":"0.00022890","COUNTRY_CODE":"US","ARG_OF_PERICENTER":"31.6419","MEAN_MOTION":"15.08824130"},{"MEAN_MOTION":"15.08837386","ECCENTRICITY":"0.00021010","APOAPSIS":"541.207","ARG_OF_PERICENTER":"32.7757","COUNTRY_CODE":"US","CLASSIFICATION_TYPE":"U","REV_AT_EPOCH":"4064","FILE":"3650843","OBJECT_TYPE":"PAYLOAD","BSTAR":"-0.00018566000000","RCS_SIZE":"LARGE","SITE":"AFWTR","GP_ID":"217372044","MEAN_MOTION_DOT":"-0.00003242","MEAN_MOTION_DDOT":"0.0000000000000","OBJECT_ID":"2022-017AU","OBJECT_NAME":"STARLINK-3613","LAUNCH_DATE":"2022-02-25","TLE_LINE2":"2 51810  53.2186  23.8463 0002101  32.7757 327.3365 15.08837386 40645","EPHEMERIS_TYPE":"0","NORAD_CAT_ID":"51810","TLE_LINE1":"1 51810U 22017AU  22314.60683889 -.00003242  00000-0 -18566-3 0  9999","INCLINATION":"53.2186","SEMIMAJOR_AXIS":"6917.888","CENTER_NAME":"EARTH","MEAN_ANOMALY":"327.3365","PERIOD":"95.438","MEAN_ELEMENT_THEORY":"SGP4","REF_FRAME":"TEME","EPOCH":"2022-11-10T14:33:50.880096","RA_OF_ASC_NODE":"23.8463","ELEMENT_SET_NO":"999","TIME_SYSTEM":"UTC","PERIAPSIS":"538.300","DECAY_DATE":null},{"REV_AT_EPOCH":"4053","CLASSIFICATION_TYPE":"U","BSTAR":"-0.00030374000000","OBJECT_TYPE":"PAYLOAD","FILE":"3650843","SITE":"AFWTR","RCS_SIZE":"LARGE","LAUNCH_DATE":"2022-02-25","OBJECT_NAME":"STARLINK-3569","GP_ID":"217371786","MEAN_MOTION_DOT":"-0.00005117","MEAN_MOTION_DDOT":"0.0000000000000","OBJECT_ID":"2022-017AV","MEAN_MOTION":"15.08826461","APOAPSIS":"541.195","ECCENTRICITY":"0.00020350","COUNTRY_CODE":"US","ARG_OF_PERICENTER":"42.3709","RA_OF_ASC_NODE":"33.6403","PERIAPSIS":"538.379","TIME_SYSTEM":"UTC","ELEMENT_SET_NO":"999","DECAY_DATE":null,"TLE_LINE2":"2 51811  53.2184  33.6403 0002035  42.3709 317.7440 15.08826461 40534","SEMIMAJOR_AXIS":"6917.922","INCLINATION":"53.2184","CENTER_NAME":"EARTH","NORAD_CAT_ID":"51811","TLE_LINE1":"1 51811U 22017AV  22314.65281457 -.00005117  00000-0 -30374-3 0  9994","EPHEMERIS_TYPE":"0","MEAN_ANOMALY":"317.7440","PERIOD":"95.438","REF_FRAME":"TEME","MEAN_ELEMENT_THEORY":"SGP4","EPOCH":"2022-11-10T15:40:03.178848"},{"RA_OF_ASC_NODE":"24.4890","DECAY_DATE":null,"ELEMENT_SET_NO":"999","TIME_SYSTEM":"UTC","PERIAPSIS":"538.249","EPHEMERIS_TYPE":"0","TLE_LINE1":"1 51812U 22017AW  22314.46235837 -.00003146  00000-0 -17962-3 0  9993","NORAD_CAT_ID":"51812","SEMIMAJOR_AXIS":"6917.884","INCLINATION":"53.2208","CENTER_NAME":"EARTH","TLE_LINE2":"2 51812  53.2208  24.4890 0002168  35.1371 324.9764 15.08838849 40624","EPOCH":"2022-11-10T11:05:47.763168","PERIOD":"95.438","REF_FRAME":"TEME","MEAN_ELEMENT_THEORY":"SGP4","MEAN_ANOMALY":"324.9764","FILE":"3650424","OBJECT_TYPE":"PAYLOAD","BSTAR":"-0.00017962000000","CLASSIFICATION_TYPE":"U","REV_AT_EPOCH":"4062","MEAN_MOTION_DOT":"-0.00003146","GP_ID":"217309259","MEAN_MOTION_DDOT":"0.0000000000000","OBJECT_ID":"2022-017AW","OBJECT_NAME":"STARLINK-3610","LAUNCH_DATE":"2022-02-25","RCS_SIZE":"LARGE","SITE":"AFWTR","MEAN_MOTION":"15.08838849","ARG_OF_PERICENTER":"35.1371","COUNTRY_CODE":"US","ECCENTRICITY":"0.00021680","APOAPSIS":"541.249"},{"RA_OF_ASC_NODE":"23.9917","TIME_SYSTEM":"UTC","ELEMENT_SET_NO":"999","PERIAPSIS":"538.171","DECAY_DATE":null,"TLE_LINE2":"2 51813  53.2194  23.9917 0002261  32.4119 327.7012 15.08843365 40645","EPHEMERIS_TYPE":"0","SEMIMAJOR_AXIS":"6917.870","INCLINATION":"53.2194","CENTER_NAME":"EARTH","TLE_LINE1":"1 51813U 22017AX  22314.57371403 -.00003241  00000-0 -18557-3 0  9993","NORAD_CAT_ID":"51813","MEAN_ANOMALY":"327.7012","REF_FRAME":"TEME","PERIOD":"95.437","MEAN_ELEMENT_THEORY":"SGP4","EPOCH":"2022-11-10T13:46:08.892192","REV_AT_EPOCH":"4064","CLASSIFICATION_TYPE":"U","FILE":"3650843","BSTAR":"-0.00018557000000","OBJECT_TYPE":"PAYLOAD","RCS_SIZE":"LARGE","SITE":"AFWTR","MEAN_MOTION_DDOT":"0.0000000000000","GP_ID":"217370798","OBJECT_ID":"2022-017AX","MEAN_MOTION_DOT":"-0.00003241","LAUNCH_DATE":"2022-02-25","OBJECT_NAME":"STARLINK-3552","MEAN_MOTION":"15.08843365","APOAPSIS":"541.299","ECCENTRICITY":"0.00022610","COUNTRY_CODE":"US","ARG_OF_PERICENTER":"32.4119"},{"DECAY_DATE":null,"PERIAPSIS":"538.528","ELEMENT_SET_NO":"999","TIME_SYSTEM":"UTC","RA_OF_ASC_NODE":"23.9372","MEAN_ELEMENT_THEORY":"SGP4","PERIOD":"95.437","REF_FRAME":"TEME","EPOCH":"2022-11-10T14:05:57.723360","MEAN_ANOMALY":"316.0754","TLE_LINE1":"1 51814U 22017AY  22314.58747365 -.00001879  00000-0 -99989-4 0  9993","NORAD_CAT_ID":"51814","SEMIMAJOR_AXIS":"6917.853","INCLINATION":"53.2198","CENTER_NAME":"EARTH","EPHEMERIS_TYPE":"0","TLE_LINE2":"2 51814  53.2198  23.9372 0001720  44.0375 316.0754 15.08848932 40646","OBJECT_NAME":"STARLINK-3599","LAUNCH_DATE":"2022-02-25","GP_ID":"217371545","MEAN_MOTION_DOT":"-0.00001879","MEAN_MOTION_DDOT":"0.0000000000000","OBJECT_ID":"2022-017AY","SITE":"AFWTR","RCS_SIZE":"LARGE","OBJECT_TYPE":"PAYLOAD","BSTAR":"-0.00009998900000","FILE":"3650843","CLASSIFICATION_TYPE":"U","REV_AT_EPOCH":"4064","ARG_OF_PERICENTER":"44.0375","COUNTRY_CODE":"US","ECCENTRICITY":"0.00017200","APOAPSIS":"540.908","MEAN_MOTION":"15.08848932"},{"COUNTRY_CODE":"US","ARG_OF_PERICENTER":"64.7201","APOAPSIS":"540.838","ECCENTRICITY":"0.00014550","MEAN_MOTION":"15.08811947","LAUNCH_DATE":"2022-02-25","OBJECT_NAME":"STARLINK-3604","MEAN_MOTION_DOT":"0.00008999","GP_ID":"217372286","MEAN_MOTION_DDOT":"0.0000000000000","OBJECT_ID":"2022-017AZ","SITE":"AFWTR","RCS_SIZE":"LARGE","BSTAR":"0.00058321000000","OBJECT_TYPE":"PAYLOAD","FILE":"3650843","REV_AT_EPOCH":"4066","CLASSIFICATION_TYPE":"U","MEAN_ELEMENT_THEORY":"SGP4","PERIOD":"95.439","EPOCH":"2022-11-10T17:22:03.150048","REF_FRAME":"TEME","MEAN_ANOMALY":"295.3941","SEMIMAJOR_AXIS":"6917.966","INCLINATION":"53.2166","CENTER_NAME":"EARTH","NORAD_CAT_ID":"51815","TLE_LINE1":"1 51815U 22017AZ  22314.72364757  .00008999  00000-0  58321-3 0  9992","EPHEMERIS_TYPE":"0","TLE_LINE2":"2 51815  53.2166  23.3311 0001455  64.7201 295.3941 15.08811947 40666","DECAY_DATE":null,"PERIAPSIS":"538.825","TIME_SYSTEM":"UTC","ELEMENT_SET_NO":"999","RA_OF_ASC_NODE":"23.3311"}];
